ONEWEB-0176             
1 48210U 21031A   26169.32076001  .00000242  00000+0  61769-3 0  9994
2 48210  87.8964 289.4732 0001906 104.2895 255.8446 13.14503517248467
ONEWEB-0184             
1 48211U 21031B   26169.29379552 -.00000086  00000+0 -26778-3 0  9997
2 48211  87.8975 289.4792 0001611 126.6755 233.4523 13.14502928248432
ONEWEB-0179             
1 48212U 21031C   26169.28824355  .00000172  00000+0  51282-4 0  9996
2 48212  87.8990 286.7071 0218724 253.5771 104.1282 14.25523838249201
ONEWEB-0180             
1 48213U 21031D   26168.84026417 -.00000130  00000+0 -38414-3 0  9998
2 48213  87.8972 289.5659 0002230 110.8972 249.2397 13.14503530248308
ONEWEB-0218             
1 48214U 21031E   26169.31917564  .00000800  00000+0  21225-2 0  9997
2 48214  87.8971 289.4699 0002187 136.6713 223.4589 13.14500742248524
ONEWEB-0209             
1 48215U 21031F   26168.85135769  .00000091  00000+0  21076-3 0  9992
2 48215  87.8966 289.5797 0002127 104.8014 255.3352 13.14502146248469
ONEWEB-0198             
1 48216U 21031G   26169.29235418 -.00000131  00000+0 -38879-3 0  9990
2 48216  87.8956 289.4911 0002114 112.7702 247.3651 13.14502739248634
ONEWEB-0189             
1 48217U 21031H   26169.30490159  .00000042  00000+0  77835-4 0  9993
2 48217  87.8968 289.4748 0002037 110.5298 249.6051 13.14503253248378
ONEWEB-0196             
1 48218U 21031J   26169.28269888 -.00000151  00000+0 -44144-3 0  9993
2 48218  87.8965 289.4883 0002029 104.5409 255.5946 13.14503246248375
ONEWEB-0183             
1 48219U 21031K   26168.87673890  .00000097  00000+0  22623-3 0  9995
2 48219  87.8965 289.5672 0002061  96.2653 263.8711 13.14503141248418
ONEWEB-0185             
1 48220U 21031L   26168.82677773 -.00000239  00000+0 -68024-3 0  9991
2 48220  87.8973 289.5708 0002352 100.8844 259.2550 13.14502868248332
ONEWEB-0187             
1 48221U 21031M   26168.88293320 -.00002297  00000+0 -62316-2 0  9993
2 48221  87.8972 289.5730 0002260 102.2495 257.8888 13.14509206248356
ONEWEB-0192             
1 48222U 21031N   26169.30965193  .00000203  00000+0  51296-3 0  9995
2 48222  87.8964 289.4804 0001927 104.5145 255.6199 13.14501377248324
ONEWEB-0219             
1 48223U 21031P   26169.28902323 -.00000136  00000+0 -40009-3 0  9996
2 48223  87.8967 289.4767 0002175 103.1636 256.9737 13.14501329248523
ONEWEB-0202             
1 48224U 21031Q   26169.27001712 -.00000013  00000+0 -69999-4 0  9992
2 48224  87.8967 289.4926 0001902 121.3354 238.7962 13.14502665248507
ONEWEB-0204             
1 48225U 21031R   26169.30409930  .00001214  00000+0  32393-2 0  9999
2 48225  87.8971 289.4806 0002087  94.0422 266.0946 13.14512189248404
