[{"OBJECT_NAME":"ONEWEB-0176","OBJECT_ID":"2021-031A","EPOCH":"2026-06-18T07:41:53.664864","MEAN_MOTION":13.14503517,"ECCENTRICITY":0.0001906,"INCLINATION":87.8964,"RA_OF_ASC_NODE":289.4732,"ARG_OF_PERICENTER":104.2895,"MEAN_ANOMALY":255.8446,"EPHEMERIS_TYPE":0,"CLASSIFICATION_TYPE":"U","NORAD_CAT_ID":48210,"ELEMENT_SET_NO":999,"REV_AT_EPOCH":24846,"BSTAR":0.00061769,"MEAN_MOTION_DOT":2.42e-06,"MEAN_MOTION_DDOT":0.0},{"OBJECT_NAME":"ONEWEB-0184","OBJECT_ID":"2021-031B","EPOCH":"2026-06-18T07:03:03.932928","MEAN_MOTION":13.14502928,"ECCENTRICITY":0.0001611,"INCLINATION":87.8975,"RA_OF_ASC_NODE":289.4792,"ARG_OF_PERICENTER":126.6755,"MEAN_ANOMALY":233.4523,"EPHEMERIS_TYPE":0,"CLASSIFICATION_TYPE":"U","NORAD_CAT_ID":48211,"ELEMENT_SET_NO":999,"REV_AT_EPOCH":24843,"BSTAR":-0.00026778,"MEAN_MOTION_DOT":-8.6e-07,"MEAN_MOTION_DDOT":0.0},{"OBJECT_NAME":"ONEWEB-0179","OBJECT_ID":"2021-031C","EPOCH":"2026-06-18T06:55:04.242720","MEAN_MOTION":14.25523838,"ECCENTRICITY":0.0218724,"INCLINATION":87.899,"RA_OF_ASC_NODE":286.7071,"ARG_OF_PERICENTER":253.5771,"MEAN_ANOMALY":104.1282,"EPHEMERIS_TYPE":0,"CLASSIFICATION_TYPE":"U","NORAD_CAT_ID":48212,"ELEMENT_SET_NO":999,"REV_AT_EPOCH":24920,"BSTAR":5.128200000000001e-05,"MEAN_MOTION_DOT":1.72e-06,"MEAN_MOTION_DDOT":0.0},{"OBJECT_NAME":"ONEWEB-0180","OBJECT_ID":"2021-031D","EPOCH":"2026-06-17T20:09:58.824288","MEAN_MOTION":13.1450353,"ECCENTRICITY":0.000223,"INCLINATION":87.8972,"RA_OF_ASC_NODE":289.5659,"ARG_OF_PERICENTER":110.8972,"MEAN_ANOMALY":249.2397,"EPHEMERIS_TYPE":0,"CLASSIFICATION_TYPE":"U","NORAD_CAT_ID":48213,"ELEMENT_SET_NO":999,"REV_AT_EPOCH":24830,"BSTAR":-0.00038414,"MEAN_MOTION_DOT":-1.3e-06,"MEAN_MOTION_DDOT":0.0},{"OBJECT_NAME":"ONEWEB-0218","OBJECT_ID":"2021-031E","EPOCH":"2026-06-18T07:39:36.775296","MEAN_MOTION":13.14500742,"ECCENTRICITY":0.0002187,"INCLINATION":87.8971,"RA_OF_ASC_NODE":289.4699,"ARG_OF_PERICENTER":136.6713,"MEAN_ANOMALY":223.4589,"EPHEMERIS_TYPE":0,"CLASSIFICATION_TYPE":"U","NORAD_CAT_ID":48214,"ELEMENT_SET_NO":999,"REV_AT_EPOCH":24852,"BSTAR":0.0021225,"MEAN_MOTION_DOT":8e-06,"MEAN_MOTION_DDOT":0.0},{"OBJECT_NAME":"ONEWEB-0209","OBJECT_ID":"2021-031F","EPOCH":"2026-06-17T20:25:57.304416","MEAN_MOTION":13.14502146,"ECCENTRICITY":0.0002127,"INCLINATION":87.8966,"RA_OF_ASC_NODE":289.5797,"ARG_OF_PERICENTER":104.8014,"MEAN_ANOMALY":255.3352,"EPHEMERIS_TYPE":0,"CLASSIFICATION_TYPE":"U","NORAD_CAT_ID":48215,"ELEMENT_SET_NO":999,"REV_AT_EPOCH":24846,"BSTAR":0.00021076,"MEAN_MOTION_DOT":9.1e-07,"MEAN_MOTION_DDOT":0.0},{"OBJECT_NAME":"ONEWEB-0198","OBJECT_ID":"2021-031G","EPOCH":"2026-06-18T07:00:59.401152","MEAN_MOTION":13.14502739,"ECCENTRICITY":0.0002114,"INCLINATION":87.8956,"RA_OF_ASC_NODE":289.4911,"ARG_OF_PERICENTER":112.7702,"MEAN_ANOMALY":247.3651,"EPHEMERIS_TYPE":0,"CLASSIFICATION_TYPE":"U","NORAD_CAT_ID":48216,"ELEMENT_SET_NO":999,"REV_AT_EPOCH":24863,"BSTAR":-0.00038879,"MEAN_MOTION_DOT":-1.31e-06,"MEAN_MOTION_DDOT":0.0},{"OBJECT_NAME":"ONEWEB-0189","OBJECT_ID":"2021-031H","EPOCH":"2026-06-18T07:19:03.497376","MEAN_MOTION":13.14503253,"ECCENTRICITY":0.0002037,"INCLINATION":87.8968,"RA_OF_ASC_NODE":289.4748,"ARG_OF_PERICENTER":110.5298,"MEAN_ANOMALY":249.6051,"EPHEMERIS_TYPE":0,"CLASSIFICATION_TYPE":"U","NORAD_CAT_ID":48217,"ELEMENT_SET_NO":999,"REV_AT_EPOCH":24837,"BSTAR":7.7835e-05,"MEAN_MOTION_DOT":4.2e-07,"MEAN_MOTION_DDOT":0.0},{"OBJECT_NAME":"ONEWEB-0196","OBJECT_ID":"2021-031J","EPOCH":"2026-06-18T06:47:05.183232","MEAN_MOTION":13.14503246,"ECCENTRICITY":0.0002029,"INCLINATION":87.8965,"RA_OF_ASC_NODE":289.4883,"ARG_OF_PERICENTER":104.5409,"MEAN_ANOMALY":255.5946,"EPHEMERIS_TYPE":0,"CLASSIFICATION_TYPE":"U","NORAD_CAT_ID":48218,"ELEMENT_SET_NO":999,"REV_AT_EPOCH":24837,"BSTAR":-0.00044144000000000003,"MEAN_MOTION_DOT":-1.51e-06,"MEAN_MOTION_DDOT":0.0},{"OBJECT_NAME":"ONEWEB-0183","OBJECT_ID":"2021-031K","EPOCH":"2026-06-17T21:02:30.240960","MEAN_MOTION":13.14503141,"ECCENTRICITY":0.0002061,"INCLINATION":87.8965,"RA_OF_ASC_NODE":289.5672,"ARG_OF_PERICENTER":96.2653,"MEAN_ANOMALY":263.8711,"EPHEMERIS_TYPE":0,"CLASSIFICATION_TYPE":"U","NORAD_CAT_ID":48219,"ELEMENT_SET_NO":999,"REV_AT_EPOCH":24841,"BSTAR":0.00022622999999999998,"MEAN_MOTION_DOT":9.7e-07,"MEAN_MOTION_DDOT":0.0},{"OBJECT_NAME":"ONEWEB-0185","OBJECT_ID":"2021-031L","EPOCH":"2026-06-17T19:50:33.595872","MEAN_MOTION":13.14502868,"ECCENTRICITY":0.0002352,"INCLINATION":87.8973,"RA_OF_ASC_NODE":289.5708,"ARG_OF_PERICENTER":100.8844,"MEAN_ANOMALY":259.255,"EPHEMERIS_TYPE":0,"CLASSIFICATION_TYPE":"U","NORAD_CAT_ID":48220,"ELEMENT_SET_NO":999,"REV_AT_EPOCH":24833,"BSTAR":-0.0006802399999999999,"MEAN_MOTION_DOT":-2.39e-06,"MEAN_MOTION_DDOT":0.0},{"OBJECT_NAME":"ONEWEB-0187","OBJECT_ID":"2021-031M","EPOCH":"2026-06-17T21:11:25.428480","MEAN_MOTION":13.14509206,"ECCENTRICITY":0.000226,"INCLINATION":87.8972,"RA_OF_ASC_NODE":289.573,"ARG_OF_PERICENTER":102.2495,"MEAN_ANOMALY":257.8888,"EPHEMERIS_TYPE":0,"CLASSIFICATION_TYPE":"U","NORAD_CAT_ID":48221,"ELEMENT_SET_NO":999,"REV_AT_EPOCH":24835,"BSTAR":-0.0062316,"MEAN_MOTION_DOT":-2.297e-05,"MEAN_MOTION_DDOT":0.0},{"OBJECT_NAME":"ONEWEB-0192","OBJECT_ID":"2021-031N","EPOCH":"2026-06-18T07:25:53.926752","MEAN_MOTION":13.14501377,"ECCENTRICITY":0.0001927,"INCLINATION":87.8964,"RA_OF_ASC_NODE":289.4804,"ARG_OF_PERICENTER":104.5145,"MEAN_ANOMALY":255.6199,"EPHEMERIS_TYPE":0,"CLASSIFICATION_TYPE":"U","NORAD_CAT_ID":48222,"ELEMENT_SET_NO":999,"REV_AT_EPOCH":24832,"BSTAR":0.00051296,"MEAN_MOTION_DOT":2.03e-06,"MEAN_MOTION_DDOT":0.0},{"OBJECT_NAME":"ONEWEB-0219","OBJECT_ID":"2021-031P","EPOCH":"2026-06-18T06:56:11.607072","MEAN_MOTION":13.14501329,"ECCENTRICITY":0.0002175,"INCLINATION":87.8967,"RA_OF_ASC_NODE":289.4767,"ARG_OF_PERICENTER":103.1636,"MEAN_ANOMALY":256.9737,"EPHEMERIS_TYPE":0,"CLASSIFICATION_TYPE":"U","NORAD_CAT_ID":48223,"ELEMENT_SET_NO":999,"REV_AT_EPOCH":24852,"BSTAR":-0.00040009,"MEAN_MOTION_DOT":-1.36e-06,"MEAN_MOTION_DDOT":0.0},{"OBJECT_NAME":"ONEWEB-0202","OBJECT_ID":"2021-031Q","EPOCH":"2026-06-18T06:28:49.479168","MEAN_MOTION":13.14502665,"ECCENTRICITY":0.0001902,"INCLINATION":87.8967,"RA_OF_ASC_NODE":289.4926,"ARG_OF_PERICENTER":121.3354,"MEAN_ANOMALY":238.7962,"EPHEMERIS_TYPE":0,"CLASSIFICATION_TYPE":"U","NORAD_CAT_ID":48224,"ELEMENT_SET_NO":999,"REV_AT_EPOCH":24850,"BSTAR":-6.9999e-05,"MEAN_MOTION_DOT":-1.3e-07,"MEAN_MOTION_DDOT":0.0},{"OBJECT_NAME":"ONEWEB-0204","OBJECT_ID":"2021-031R","EPOCH":"2026-06-18T07:17:54.179520","MEAN_MOTION":13.14512189,"ECCENTRICITY":0.0002087,"INCLINATION":87.8971,"RA_OF_ASC_NODE":289.4806,"ARG_OF_PERICENTER":94.0422,"MEAN_ANOMALY":266.0946,"EPHEMERIS_TYPE":0,"CLASSIFICATION_TYPE":"U","NORAD_CAT_ID":48225,"ELEMENT_SET_NO":999,"REV_AT_EPOCH":24840,"BSTAR":0.0032393,"MEAN_MOTION_DOT":1.214e-05,"MEAN_MOTION_DDOT":0.0}]